*******************************************************************************JPL/HORIZONS                 5 Astraea (A845 XA)           2021-Jan-29 14:21:19Rec #:       5 (+COV) Soln.date: 2020-Nov-13_04:34:27   # obs: 3082 (1845-2020) IAU76/J2000 helio. ecliptic osc. elements (au, days, deg., period=Julian yrs):   EPOCH=  2452105.5 ! 2001-Jul-15.00 (TDB)         Residual RMS= .28148   EC= .1926947471466102   QR= 2.07769042359893    TP= 2451379.1043060916   OM= 141.6903620209139   W=  357.6753568314604   IN= 5.368699405633293   A= 2.573611922200942    MA= 173.4054509486301   ADIST= 3.069533420802954   PER= 4.12879            N= .238720366           ANGMOM= .027079243   DAN= 2.07797            DDN= 3.06893            L= 139.3759154   B= -.2174438            MOID= 1.09069002        TP= 1999-Jul-19.6043060916 Asteroid physical parameters (km, seconds, rotational period in hours):   GM= n.a.                RAD= 53.3495            ROTPER= 16.806   H= 6.9                  G= .150                 B-V= .826                           ALBEDO= .274            STYP= S ASTEROID comments: 1: soln ref.= JPL#115, OCC=02: source=ORB*******************************************************************************  *******************************************************************************Ephemeris / WWW_USER Fri Jan 29 14:21:19 2021 Pasadena, USA      / Horizons*******************************************************************************Target body name: 5 Astraea (A845 XA)             {source: JPL#115}Center body name: Solar System Barycenter (0)     {source: DE431}Center-site name: BODY CENTER*******************************************************************************Start time      : A.D. 2021-Jan-01 00:00:00.0000 TDBStop  time      : A.D. 2021-Jan-02 00:00:00.0000 TDBStep-size       : 1440 minutes*******************************************************************************Center geodetic : 0.00000000,0.00000000,0.0000000 {E-lon(deg),Lat(deg),Alt(km)}Center cylindric: 0.00000000,0.00000000,0.0000000 {E-lon(deg),Dxy(km),Dz(km)}Center radii    : (undefined)                                                  Small perturbers: Yes                             {source: SB431-N16}Output units    : KM-SOutput type     : GEOMETRIC cartesian statesOutput format   : 2 (position and velocity)Reference frame : Ecliptic of J2000.0*******************************************************************************Initial IAU76/J2000 heliocentric ecliptic osculating elements (au, days, deg.):  EPOCH=  2452105.5 ! 2001-Jul-15.00 (TDB)         Residual RMS= .28148           EC= .1926947471466102   QR= 2.07769042359893    TP= 2451379.1043060916         OM= 141.6903620209139   W=  357.6753568314604   IN= 5.368699405633293         Equivalent ICRF heliocentric equatorial cartesian coordinates (au, au/d):   X= 2.162820838210782E+00  Y=-2.008824943749815E+00  Z=-8.334849019748722E-01  VX= 6.356912457832670E-03 VY= 5.898141202841876E-03 VZ= 1.665337599654990E-03Asteroid physical parameters (km, seconds, rotational period in hours):           GM= n.a.                RAD= 53.3495            ROTPER= 16.806                 H= 6.9                  G= .150                 B-V= .826                                              ALBEDO= .274            STYP= S                     *******************************************************************************            JDTDB,            Calendar Date (TDB),                      X,                      Y,                      Z,                     VX,                     VY,                     VZ,**************************************************************************************************************************************************************************************************$$SOE2459215.500000000, A.D. 2021-Jan-01 00:00:00.0000, -2.333596019323758E+08, -2.877647053575823E+08,  3.483194868556811E+07,  1.242206535192405E+01, -1.462851766178473E+01,  3.502547042434978E-01,2459216.500000000, A.D. 2021-Jan-02 00:00:00.0000, -2.322841076714546E+08, -2.890258347733639E+08,  3.486187634834339E+07,  1.247357374253151E+01, -1.456427312782183E+01,  3.425173977597185E-01,$$EOE**************************************************************************************************************************************************************************************************Coordinate system description:  Ecliptic at the standard reference epoch    Reference epoch: J2000.0    X-Y plane: adopted Earth orbital plane at the reference epoch               Note: obliquity of 84381.448 arcseconds (IAU76) wrt ICRF equator    X-axis   : ICRF    Z-axis   : perpendicular to the X-Y plane in the directional (+ or -) sense               of Earth's north pole at the reference epoch.  Symbol meaning:    JDTDB    Julian Day Number, Barycentric Dynamical Time      X      X-component of position vector (km)      Y      Y-component of position vector (km)      Z      Z-component of position vector (km)      VX     X-component of velocity vector (km/sec)                                 VY     Y-component of velocity vector (km/sec)                                 VZ     Z-component of velocity vector (km/sec)                           Geometric states/elements have no aberrations applied. Computations by ...     Solar System Dynamics Group, Horizons On-Line Ephemeris System     4800 Oak Grove Drive, Jet Propulsion Laboratory     Pasadena, CA  91109   USA     Information  : https://ssd.jpl.nasa.gov/     Documentation: https://ssd.jpl.nasa.gov/?horizons_doc     Connect      : https://ssd.jpl.nasa.gov/?horizons (browser)                    telnet ssd.jpl.nasa.gov 6775       (command-line)                    e-mail command interface available                    Script and CGI interfaces available     Author       : Jon.D.Giorgini@jpl.nasa.gov*******************************************************************************